# Made by eph2tle, compiled Sep 17 2021 12:00:30
# Run at Mon Sep 20 14:24:39 2021
#
#    The following TLEs (Two-Line Elements) were generated by fitting
# a numerically-integrated ephemeris,  based on the orbit given below,
# to the SDP4/SGP4 models.  Each TLE is good for the interval between
# its epoch and the epoch of the subsequent TLE (usually one day).
# The maximum deviation between the numerically integrated ephemerides
# and the TLE-based ephemeris, in kilometers,  is given for each TLE
# as the "worst residual".
#
#    This fitting is done using the 'eph2tle' code packaged with Find_Orb.
# The code has details on how the TLEs were computed :
#
#    https://github.com/Bill-Gray/find_orb/eph2tle.cpp
#
#    Be warned:  the error given is that between the numerically
# integrated ephems and the TLE model.  There will usually be at
# least some additional difference between the ephems and the actual
# motion of the satellite,  especially if the ephemerides are based
# on a short arc.  If the following orbital elements say something
# like "[based on] 10 observations 2015 Jan. 1-13",  and the TLEs
# are for 2015 May,  the extrapolation may be tenuous at best.  If
# your application requires a specific level of accuracy,  you may
# want to contact me;  I can give you some idea as to the fit of the
# underlying data (and possibly TLEs based on newer data).
#
#   You can usually find the underlying observational data,  and the
# fitted orbit,  residuals,  ephemerides,  and sometimes some comments
# about the object,  among the pages listed at
#
#    https://www.projectpluto.com/pluto/mpecs/pseudo.htm
#
#    WARNING:  for this object,  "normal" TLEs cannot be fitted.  (This
# usually means an object with an hyperbolic or nearly-parabolic orbit.)
# For this and similar cases,   an alternative model is used,  in which
# most of the traditional TLE data is replaced by six signed 8-digit hex
# numbers.  These six numbers are a state vector,  numerically integrated
# using a simplified force model.  This is necessary for objects at L2 or
# L1,  and sometimes for objects in high orbits where the SDP4/SGP4 model
# fails.  I'll be posting source code for this.  But be aware:  it's my
# own extension,  doesn't work with other code,  and is therefore used
# only when necessary.
#
#    Also,  if you use a TLE outside the "correct" time range (between
# its MJD and that of the next TLE),  all bets are off.  I've carefully
# computed and minimized the worst error over the "correct" time frame,
# but the ephemeris may (or may not) diverge wildly outside of it.
#
# Ephem range: 59468.000000 59498.000000 1.000000
# Created Mon Sep 20 14:24:31 2021
# Ephemeris start: 11 Sep 2021  0:00:00
# Ephemeris end:   11 Oct 2021  0:00:00
# Times are all TDT
# Positions/velocities are in ecliptic J2000
# Orbital elements:  Unk_Cislunar
#    Perilune 2021 Sep 12.21978 +/- 0.000727 TT =  5:16:29 (JD 2459469.71978)
# Epoch 2021 Sep 11.0 TT = JDT 2459468.5                        Find_Orb
# q 15719.6746 +/- 10.9               (J2000 ecliptic)
# H   28.8  G 0.15                    Peri.   84.68661 +/- 0.016
#                                     Node   201.15135 +/- 0.006
# e   1.0482044 +/- 8.77e-5           Incl.   54.82846 +/- 0.006
# 49 of 73 observations 2021 June 5-Sept. 20; mean residual 139".313
#
# 1 NoradU COSPAR   Epoch.epoch     dn/dt/2  d2n/dt2/6 BSTAR    T El# C
# 2 NoradU Inclina RAAscNode Eccent  ArgPeri MeanAno  MeanMotion Rev# C

# Worst residual: 277.02 km
# MJD 59468.000000 (2021 Sep 11  0:00)
Unk_Cislunar
1 99999U 00000    21253.99919926 -005FEIHW -003NVHVC -001PBTW8H 13591
2 99999                          +0005VIV4 -0005LZSJ -0000Y1C9     03

# Worst residual: 2363.68 km
# MJD 59469.000000 (2021 Sep 12  0:00)
Unk_Cislunar
1 99999U 00000    21254.99919926 -003PZHW9 -004VJWWI -001UBZ8XH 13590
2 99999                          +0008UDU3 -0003ULIS -0000B63H     02

# Worst residual: 171.83 km
# MJD 59470.000000 (2021 Sep 13  0:00)
Unk_Cislunar
1 99999U 00000    21255.99919926 -001LN8QE -0054GE8T -0025MDESH 13599
2 99999                          +0007VBF8 +0000G47O -0001V3LE     08

# Worst residual: 39.06 km
# MJD 59471.000000 (2021 Sep 14  0:00)
Unk_Cislunar
1 99999U 00000    21256.99919926 +0006S2CW -004VE23F -002JIGJBH 13595
2 99999                          +00075XIF +0001ONJ1 -00018WK7     08

# Worst residual: 11.96 km
# MJD 59472.000000 (2021 Sep 15  0:00)
Unk_Cislunar
1 99999U 00000    21257.99919926 +001U4WBE -004AWVRM -002QCN4XH 13592
2 99999                          +0006IQTZ +00031WLK -0000BBFU     08

# Worst residual: 5.29 km
# MJD 59473.000000 (2021 Sep 16  0:00)
Unk_Cislunar
1 99999U 00000    21258.99919926 +003AB77Y -003F3NF1 -002OU43EH 13591
2 99999                          +0005HNAD +00049IBA +0000NPRJ     05

# Worst residual: 3.05 km
# MJD 59474.000000 (2021 Sep 17  0:00)
Unk_Cislunar
1 99999U 00000    21259.99919926 +004G0BFF -002A9CAH -002F8SNSH 13594
2 99999                          +000446E6 +00054DUE +0001JCOW     07

# Worst residual: 1.84 km
# MJD 59475.000000 (2021 Sep 18  0:00)
Unk_Cislunar
1 99999U 00000    21260.99919926 +0058VDJH -000ZTXRB -001YS0CDH 13595
2 99999                          +0002JMYY +0005JX7A +00028NQN     01

# Worst residual: 3.10 km
# MJD 59476.000000 (2021 Sep 19  0:00)
Unk_Cislunar
1 99999U 00000    21261.99919926 +005NUWP3 +000CI3A2 -001D534GH 13597
2 99999                          +0000XCFY +0005KHU6 +0002QC0L     00

# Worst residual: 3.59 km
# MJD 59477.000000 (2021 Sep 20  0:00)
Unk_Cislunar
1 99999U 00000    21262.99919926 +005P2GAK +001NCTF5 -000O7CKPH 13592
2 99999                          -0000MLY1 +00057Y72 +0003072R     02

# Worst residual: 3.28 km
# MJD 59478.000000 (2021 Sep 21  0:00)
Unk_Cislunar
1 99999U 00000    21263.99919926 +005DEZGG +002TUMIM +000277OPH 13595
2 99999                          -00021GVM +0004KJQE +00032NL9     09

# Worst residual: 2.48 km
# MJD 59479.000000 (2021 Sep 22  0:00)
Unk_Cislunar
1 99999U 00000    21264.99919926 +004QCPN2 +003TN45K +000SD6YLH 13597
2 99999                          -00039GXK +0003OF2D +0002YB8R     05

# Worst residual: 2.09 km
# MJD 59480.000000 (2021 Sep 23  0:00)
Unk_Cislunar
1 99999U 00000    21265.99919926 +003TO8XI +004KUW2U +001GQD2BH 13594
2 99999                          -00049FSA +0002LCT5 +0002NQL6     06

# Worst residual: 2.31 km
# MJD 59481.000000 (2021 Sep 24  0:00)
Unk_Cislunar
1 99999U 00000    21266.99919926 +002PF572 +00520JTJ +0021UVOXH 13591
2 99999                          -00050FBO +0001CT87 +00027D8T     06

# Worst residual: 2.40 km
# MJD 59482.000000 (2021 Sep 25  0:00)
Unk_Cislunar
1 99999U 00000    21267.99919926 +001FVA0X +0057XZPE +002IDX0LH 13591
2 99999                          -0005HEF1 -0000017A +0001LGMM     04

# Worst residual: 2.23 km
# MJD 59483.000000 (2021 Sep 26  0:00)
Unk_Cislunar
1 99999U 00000    21268.99919926 +0003L0WL +0051QKXB +002T05YRH 13593
2 99999                          -0005MWAE -0001G4WD +0000U45N     08

# Worst residual: 2.16 km
# MJD 59484.000000 (2021 Sep 27  0:00)
Unk_Cislunar
1 99999U 00000    21269.99919926 -0018F0KW +004IR649 +002WEMU1H 13594
2 99999                          -0005EJ6F -0002Y9EP -00002O4Z     08

# Worst residual: 1.95 km
# MJD 59485.000000 (2021 Sep 28  0:00)
Unk_Cislunar
1 99999U 00000    21270.99919926 -002GDN6G +003MQQ2D +002RAT14H 13591
2 99999                          -0004OFZ6 -0004G6ON -00014PJH     05

# Worst residual: 1.28 km
# MJD 59486.000000 (2021 Sep 29  0:00)
Unk_Cislunar
1 99999U 00000    21271.99919926 -003FEMJM +002E96SK +002CJ6MMH 13590
2 99999                          -0003B0RF -0005T291 -0002ATLN     02

# Worst residual: 0.74 km
# MJD 59487.000000 (2021 Sep 30  0:00)
Unk_Cislunar
1 99999U 00000    21272.99919926 -003Z57BS +000VL6X7 +001NIYY1H 13593
2 99999                          -000146MU -0006QP55 -0003GYOQ     00

# Worst residual: 0.47 km
# MJD 59488.000000 (2021 Oct  1  0:00)
Unk_Cislunar
1 99999U 00000    21273.99919926 -003W8VBW -000RLDAV +000PBUZNH 13596
2 99999                          +0001WMAZ -0006R2S5 -0004D2WQ     09

# Worst residual: 0.38 km
# MJD 59489.000000 (2021 Oct  2  0:00)
Unk_Cislunar
1 99999U 00000    21274.99919926 -00317OI2 -0028QM1A -000DPCQ4H 13595
2 99999                          +00058S5H -00059SDT -0004I6Q6     07

# Worst residual: 0.29 km
# MJD 59490.000000 (2021 Oct  3  0:00)
Unk_Cislunar
1 99999U 00000    21275.99919926 -001G9KIZ -0036CQBR -001DAOR2H 13590
2 99999                          +0007O7R2 -0002BTUP -0003JXXN     00

# Worst residual: 0.27 km
# MJD 59491.000000 (2021 Oct  4  0:00)
Unk_Cislunar
1 99999U 00000    21276.99919926 +000HQ6WN -003BTYPT -0020TEASH 13599
2 99999                          +00086YT5 +00010D5A -0001TJ4H     08

# Worst residual: 0.37 km
# MJD 59492.000000 (2021 Oct  5  0:00)
Unk_Cislunar
1 99999U 00000    21277.99919926 +002CFXKS -002R72FI -0028MBEDH 13592
2 99999                          +00071IUG +0003L1MV -0000109U     00

# Worst residual: 0.46 km
# MJD 59493.000000 (2021 Oct  6  0:00)
Unk_Cislunar
1 99999U 00000    21278.99919926 +003T5EMM -001P5EOY -0022H2ZSH 13590
2 99999                          +00053BGO +00051MIW +0001DBI0     02

# Worst residual: 0.54 km
# MJD 59494.000000 (2021 Oct  7  0:00)
Unk_Cislunar
1 99999U 00000    21279.99919926 +004S1ZJ9 -000ENUX7 -001MBTW3H 13596
2 99999                          +0002ZWQT +0005L6IS +0002AJAX     02

# Worst residual: 0.57 km
# MJD 59495.000000 (2021 Oct  8  0:00)
Unk_Cislunar
1 99999U 00000    21280.99919926 +0059F6IP +000XMERT -00100CP9H 13592
2 99999                          +000127BF +0005I7CS +0002TCRD     01

# Worst residual: 0.51 km
# MJD 59496.000000 (2021 Oct  9  0:00)
Unk_Cislunar
1 99999U 00000    21281.99919926 +005B574U +0027BKJ2 -000AJVSFH 13595
2 99999                          -0000M775 +00050P9K +000317X8     00

# Worst residual: 0.45 km
# MJD 59497.000000 (2021 Oct 10  0:00)
Unk_Cislunar
1 99999U 00000    21282.99919926 +004ZK0SD +003BM3FX +000FRCMFH 13593
2 99999                          -00020QZH +00049T4N +00030UQE     00
Avg worst resid: 96.85 km
Worst residual in entire run: 2363.68 km on MJD 59469.0
       1     3     10    30    100   300   1K    3K    10K   km
    11     9     5     1     1     2     0     1     0     0
